OBJECT_NAME,OBJECT_ID,EPOCH,MEAN_MOTION,ECCENTRICITY,INCLINATION,RA_OF_ASC_NODE,ARG_OF_PERICENTER,MEAN_ANOMALY,EPHEMERIS_TYPE,CLASSIFICATION_TYPE,NORAD_CAT_ID,ELEMENT_SET_NO,REV_AT_EPOCH,BSTAR,MEAN_MOTION_DOT,MEAN_MOTION_DDOT
NOAA 18,2005-018A,2026-06-05T22:33:06.989472,14.13727295,.00143241,98.8112,236.7795,178.6121,181.5094,0,U,28654,999,8472,.6558968E-4,.8E-6,0
SJ-7,2005-024A,2026-06-05T07:38:04.036992,15.21351600,.00172612,97.7285,186.1037,76.1190,284.1963,0,U,28737,999,14622,.3509704E-3,.7822E-4,0
CUBESAT XI-V,2005-043F,2026-06-05T09:01:24.008448,14.72598573,.00129811,98.2974,311.7509,240.3240,119.6675,0,U,28895,999,10001,.2489675E-3,.1533E-4,0
CLOUDSAT,2006-016A,2026-06-06T04:14:14.215488,14.86371882,.00055734,98.3932,193.8566,22.3416,337.8040,0,U,29107,999,7287,.14286507E-3,.1199E-4,0
CALIPSO,2006-016B,2026-06-06T04:43:49.665504,14.69328279,.00011296,98.4471,172.4863,73.6670,286.4658,0,U,29108,999,7144,.20242517E-3,.1143E-4,0
HINODE (SOLAR-B),2006-041A,2026-06-05T11:11:57.657984,14.68606216,.00166159,98.0548,172.7920,329.6832,30.3411,0,U,29479,999,5315,.15489597E-3,.852E-5,0
METOP-A,2006-044A,2026-06-06T00:18:27.272160,14.75931601,.01752877,98.3323,263.3651,104.9795,342.8976,0,U,29499,999,2380,.34129035E-3,.2954E-4,0
SHIJIAN-6 02B (SJ-6 02B),2006-046B,2026-06-06T06:47:16.111968,15.01348189,.00145064,97.7159,186.4089,91.8969,268.3917,0,U,29506,999,6910,.12584099E-3,.1563E-4,0
DMSP 5D-3 F17 (USA 191),2006-050A,2026-06-06T05:01:35.258304,14.14991429,.00113293,98.7378,164.0041,87.4078,272.8392,0,U,29522,999,1087,.48928592E-4,.52E-6,0
LAPAN-TUBSAT,2007-001A,2026-06-06T06:40:37.356096,14.85938304,.00110872,98.1343,156.2566,216.8267,143.2187,0,U,29709,999,4953,.69082424E-4,.545E-5,0
HAIYANG-1B,2007-010A,2026-06-05T21:18:12.552192,14.31024085,.00124263,98.3490,139.1712,231.8236,128.1829,0,U,31113,999,99901,.5741116E-4,.109E-5,0
BEIDOU-2 M1,2007-011A,2026-06-04T09:52:20.750592,1.77349505,.00015833,50.9340,219.7034,340.7987,19.2840,0,U,31115,999,7592,0,.36E-6,0
CAPE-1,2007-012P,2026-06-06T04:09:02.798784,14.64845083,.00848645,98.4455,131.3733,105.3104,255.7497,0,U,31130,999,1674,.30120226E-3,.1641E-4,0
CBERS 2B,2007-042A,2026-06-05T20:37:31.279584,14.41470139,.00313091,98.3920,101.7067,11.2659,56.0130,0,U,32062,999,98305,.11239093E-3,.324E-5,0
COSMO-SKYMED 2,2007-059A,2026-06-06T07:00:14.176800,14.82162786,.00014387,97.8885,341.0480,87.7342,272.4035,0,U,32376,999,39,.68571546E-4,.494E-5,0
CARTOSAT-2A,2008-021A,2026-06-06T11:51:26.142912,14.79222509,.0012539,97.7634,206.5673,140.3092,219.9040,0,U,32783,999,97722,.11405E-3,.798E-5,0
CUTE-1.7+APD II (CO-65),2008-021C,2026-06-06T10:37:58.896192,15.09347571,.0010447,97.8270,138.6393,70.2661,289.9693,0,U,32785,999,98357,.42522E-3,.6729E-4,0
SEEDS II (CO-66),2008-021J,2026-06-05T10:45:26.308224,15.32333038,.00028141,97.7518,153.7894,37.2994,322.8442,0,U,32791,999,98549,.61157616E-3,.19038E-3,0
YUBILEINY (RS30),2008-025A,2026-06-06T11:24:31.102272,12.43178944,.0019313,82.5045,2.1047,337.9090,22.1156,0,U,32953,999,81836,.60595E-4,.18E-6,0
FENGYUN 3A,2008-026A,2026-06-05T20:10:13.181376,14.19568788,.00091007,98.6881,97.8861,154.0282,206.1353,0,U,32958,999,93379,.63349933E-4,.9E-6,0
HUANJING 1A (HJ-1A),2008-041A,2026-06-06T12:18:14.896224,14.83961594,.0018957,97.6683,143.7644,168.7723,191.3919,0,U,33320,999,95682,.17507E-3,.1409E-4,0
HUANJING 1B (HJ-1B),2008-041B,2026-06-06T13:03:54.791424,14.83301480,.0035073,97.6520,146.9992,216.6426,143.2390,0,U,33321,999,95683,.2018E-3,.1617E-4,0
SHIJIAN-6 03A (SJ-6 03A),2008-053A,2026-06-06T08:44:03.014592,15.17059096,.0012638,97.8416,190.3086,54.0614,306.1789,0,U,33408,999,96132,.34191E-3,.6709E-4,0
SHIJIAN-6 03B (SJ-6 03B),2008-053B,2026-06-06T12:33:51.886944,15.04281522,.0020909,97.8583,177.2383,77.5944,282.7620,0,U,33409,999,96114,.15926E-3,.2162E-4,0
CHUANGXIN 1-02 (CX-1-02),2008-056B,2026-06-06T12:33:31.324608,14.30151335,.0014305,98.6135,183.8965,166.6714,193.4849,0,U,33434,999,91709,.66192E-4,.128E-5,0
STARS (KUKAI),2009-002G,2026-06-06T02:43:52.027968,14.95671155,.0007906,98.1541,103.9714,197.7143,162.3802,0,U,33498,999,93682,.43609E-3,.4791E-4,0
KKS-1 (KISEKI),2009-002H,2026-06-06T11:05:09.625344,14.83096660,.0007214,98.1193,79.7343,335.6369,24.4502,0,U,33499,999,93460,.20035E-3,.1577E-4,0
NOAA 19,2009-005A,2026-06-06T12:04:09.024672,14.13472756,.0014693,98.9521,228.3698,63.1379,297.1293,0,U,33591,999,89297,.51186E-4,.52E-6,0
UK-DMC 2,2009-041C,2026-06-06T05:50:57.306048,14.76012666,.00013391,97.8829,292.4783,72.7991,287.3365,0,U,35683,999,90495,.11111023E-3,.716E-5,0
METEOR-M 1,2009-049A,2026-06-06T04:16:19.975008,14.23154428,.00022187,98.7381,119.7312,11.6337,348.4892,0,U,35865,999,86768,.67370343E-4,.108E-5,0
OCEANSAT-2,2009-051A,2026-06-06T06:17:36.176928,13.99663332,.00145664,98.2323,145.2036,269.6348,90.3149,0,U,35931,999,87780,.13944276E-3,.166E-5,0
SWISSCUBE,2009-051B,2026-06-05T11:15:38.778912,14.62458715,.00054307,98.4043,64.1532,246.3597,113.7034,0,U,35932,999,88744,.23506342E-3,.1141E-4,0
BEESAT-1,2009-051C,2026-06-05T12:59:02.832000,14.61701276,.00039028,98.3972,63.8860,263.9063,96.1693,0,U,35933,999,88748,.20332174E-3,.964E-5,0
ITUPSAT1,2009-051E,2026-06-04T16:47:20.224032,14.60421767,.0006134,98.4056,62.2366,280.9538,79.0971,0,U,35935,999,88691,.20796E-3,.958E-5,0
DMSP 5D-3 F18 (USA 210),2009-057A,2026-06-06T04:19:18.656256,14.14890769,.00099009,98.9033,137.9735,284.6035,75.4040,0,U,35951,999,85803,.17511936E-3,.294E-5,0
PROBA-2,2009-059B,2026-06-05T19:46:09.135840,14.54857570,.00123473,98.2450,340.3343,320.3129,39.7163,0,U,36037,999,87987,.61328772E-4,.218E-5,0
YAOGAN-7,2009-069A,2026-06-05T10:39:58.951584,14.77997470,.00259951,98.0085,42.3833,77.8419,282.5701,0,U,36110,999,88789,.8175363E-4,.54E-5,0
XIWANG-1 (HOPE-1),2009-072B,2026-06-06T05:22:34.419072,13.16440629,.00067744,100.4028,111.2319,259.5887,100.4463,0,U,36122,999,79156,.12195097E-2,.421E-5,0
RADUGA-1M 2,2010-002A,2026-06-06T04:54:49.821120,0.98969749,.00059195,3.5918,78.9944,268.5599,341.0662,0,U,36358,999,4991,0,-.158E-5,0
COSMOS 2463,2010-017A,2026-06-06T01:15:15.645024,13.71665030,.00367579,82.9609,257.8863,159.0078,14.4513,0,U,36519,999,80640,.60145048E-4,.7E-6,0
CARTOSAT-2B,2010-035A,2026-06-06T07:25:36.494688,14.78648400,.00103295,97.9952,207.9279,221.4129,138.6300,0,U,36795,999,85824,.14144328E-3,.984E-5,0
AISSAT 1,2010-035C,2026-06-05T23:36:00.542304,14.97309458,.00102088,98.0920,55.8320,94.8491,265.3896,0,U,36797,999,86254,.25098453E-3,.2851E-4,0
TISAT 1,2010-035E,2026-06-05T19:31:50.184192,15.31259677,.00002426,98.0705,102.3578,15.0993,345.0253,0,U,36799,999,86596,.77568907E-3,.23381E-3,0
YAOGAN-10,2010-038A,2026-06-06T07:35:00.547584,14.85316544,.00016771,97.8977,180.8072,87.9643,41.9167,0,U,36834,999,85559,.27888533E-3,.2343E-4,0
SHIJIAN-6 04B (SJ-6 04B),2010-051B,2026-06-06T06:40:17.395104,14.99289597,.00095398,97.8683,162.5776,348.2304,11.8694,0,U,37180,999,85404,.81107845E-4,.929E-5,0
FENGYUN 3B,2010-059A,2026-06-06T06:51:31.227840,14.14839130,.00213649,98.9618,203.2535,215.6265,277.3665,0,U,37214,999,80588,.10494661E-3,.158E-5,0
COSMO-SKYMED 4,2010-060A,2026-06-06T07:18:28.604736,14.82159663,.00014429,97.8886,341.0620,82.7634,277.3743,0,U,37216,999,84295,.26361862E-4,.158E-5,0
O/OREOS (USA 219),2010-062C,2026-06-05T21:04:28.196832,14.93695134,.00123709,71.9702,105.9546,87.8701,272.3886,0,U,37224,999,11495,.28689329E-3,.2979E-4,0
ELEKTRO-L 1 (GOMS 2),2011-001A,2026-06-05T13:50:14.890272,1.00156262,.00044339,9.6592,54.6230,29.1049,271.1782,0,U,37344,999,5636,0,-.59E-6,0
RESOURCESAT-2,2011-015A,2026-06-06T02:37:24.669984,14.21604124,.0010162,98.7645,224.6272,291.2012,68.8079,0,U,37387,999,78460,.65724921E-4,.1E-5,0
YOUTHSAT,2011-015B,2026-06-05T20:32:34.150848,14.25625652,.00149432,98.3677,131.4214,20.0480,37.6247,0,U,37388,999,78602,.11473296E-3,.231E-5,0
APRIZESAT 6,2011-044F,2026-06-05T12:23:27.282336,14.76898404,.00442385,98.2372,66.7773,122.3000,58.2477,0,U,37793,999,79542,.12179529E-3,.814E-5,0
JUGNU,2011-058B,2026-06-05T23:06:44.999712,14.13773850,.00185087,19.9622,16.6157,312.5013,261.4793,0,U,37839,999,75743,.97395983E-4,.454E-5,0
SRMSAT,2011-058D,2026-06-05T15:30:37.949184,14.11573181,.0011943,19.9704,129.3229,77.5338,79.4380,0,U,37841,999,75618,.60191484E-4,.376E-5,0
SUOMI NPP,2011-061A,2026-06-06T03:11:52.874304,14.19515099,.0002117,98.7951,98.0851,30.4328,329.6971,0,U,37849,999,75687,.65690154E-4,.94E-6,0
YAOGAN-12,2011-066B,2026-06-06T06:04:47.150400,15.26461187,.00080682,97.1146,196.3368,263.2931,96.7390,0,U,37875,999,81037,.30508468E-3,.7893E-4,0
BEIDOU-2 M4,2012-018B,2026-06-04T18:30:08.491968,1.86229610,.00111764,55.6694,304.5088,276.7033,83.1552,0,U,38251,999,9571,0,-.57E-6,0
ARIRANG-3 (KOMPSAT-3),2012-025B,2026-06-06T05:17:43.301184,14.62196666,.00061598,98.1171,114.8703,137.6905,222.4773,0,U,38338,999,74974,.11186955E-3,.517E-5,0
HORYU-2,2012-025D,2026-06-05T21:32:58.946208,14.90998080,.00075287,98.2165,289.3739,211.4361,148.6407,0,U,38340,999,74704,.44656077E-3,.4357E-4,0
CSSWE,2012-048D,2026-06-05T15:14:11.053824,15.43881548,.00488706,64.6615,132.6079,177.3856,182.7547,0,U,38761,999,11461,.55635407E-3,.2639E-3,0
CP5,2012-048F,2026-06-05T11:31:31.061568,15.27507136,.00806327,64.6433,191.2716,180.0838,180.0293,0,U,38763,999,11497,.38515778E-3,.11245E-3,0
METOP-B,2012-049A,2026-06-06T05:00:20.253600,14.21429780,.0002847,98.6508,208.9263,44.7698,315.3709,0,U,38771,999,71170,.71141084E-4,.112E-5,0
SJ-9A,2012-056A,2026-06-06T04:25:59.613600,14.85452356,.00241145,97.6702,129.5349,295.3290,64.5428,0,U,38860,999,69795,.14659609E-3,.1217E-4,0
COSMOS 2484 (RODNIK-S 6),2013-001C,2026-06-06T06:42:24.110208,12.42938865,.00272591,82.5020,228.6734,59.8058,300.5716,0,U,39059,999,60720,.23047325E-3,.42E-6,0
SARAL,2013-009A,2026-06-06T03:32:08.086848,14.32853323,.00013318,98.5558,343.8546,358.8119,1.3062,0,U,39086,999,69402,.53971653E-4,.104E-5,0
